KUIPER2_L_00005306-01
1 55972U 22378ZZ  26070.40775463  .00000000  00000+0  00000-0 0  9990
2 55972  33.0000 140.7692 0000000   0.0000 203.0769 14.92546055    14
KUIPER2_L_00005307-01
1 55973U 25892PK  26070.40775463  .00000000  00000+0  00000-0 0  9995
2 55973  33.0000 141.2308 0000000   0.0000 204.9231 14.92546055    19
KUIPER2_L_00005308-01
1 55974U 22639UR  26070.40775463  .00000000  00000+0  00000-0 0  9992
2 55974  33.0000 141.6923 0000000   0.0000 206.7692 14.92546055    18
KUIPER2_L_00005309-01
1 55975U 24713PR  26070.40775463  .00000000  00000+0  00000-0 0  9998
2 55975  33.0000 142.1538 0000000   0.0000 208.6154 14.92546055    11
KUIPER2_L_00005310-01
1 55976U 22497ZD  26070.40775463  .00000000  00000+0  00000-0 0  9996
2 55976  33.0000 142.6154 0000000   0.0000 210.4615 14.92546055    14
KUIPER2_L_00005311-01
1 55977U 25776QV  26070.40775463  .00000000  00000+0  00000-0 0  9990
2 55977  33.0000 143.0769 0000000   0.0000 212.3077 14.92546055    15
KUIPER2_L_00005312-01
1 55978U 22203XN  26070.40775463  .00000000  00000+0  00000-0 0  9993
2 55978  33.0000 143.5385 0000000   0.0000 214.1538 14.92546055    17
KUIPER2_L_00005313-01
1 55979U 23074ZN  26070.40775463  .00000000  00000+0  00000-0 0  9991
2 55979  33.0000 144.0000 0000000   0.0000 216.0000 14.92546055    13
KUIPER2_L_00005314-01
1 55980U 22552VK  26070.40775463  .00000000  00000+0  00000-0 0  9993
2 55980  33.0000 144.4615 0000000   0.0000 217.8462 14.92546055    12
KUIPER2_L_00005315-01
1 55981U 25127YU  26070.40775463  .00000000  00000+0  00000-0 0  9995
2 55981  33.0000 144.9231 0000000   0.0000 219.6923 14.92546055    14
KUIPER2_L_00005316-01
1 55982U 24524QO  26070.40775463  .00000000  00000+0  00000-0 0  9996
2 55982  33.0000 145.3846 0000000   0.0000 221.5385 14.92546055    16
KUIPER2_L_00005317-01
1 55983U 23610WK  26070.40775463  .00000000  00000+0  00000-0 0  9992
2 55983  33.0000 145.8462 0000000   0.0000 223.3846 14.92546055    18
KUIPER2_L_00005318-01
1 55984U 22482NK  26070.40775463  .00000000  00000+0  00000-0 0  9999
2 55984  33.0000 146.3077 0000000   0.0000 225.2308 14.92546055    11
KUIPER2_L_00005319-01
1 55985U 22954HJ  26070.40775463  .00000000  00000+0  00000-0 0  9994
2 55985  33.0000 146.7692 0000000   0.0000 227.0769 14.92546055    10
KUIPER2_L_00005320-01
1 55986U 26164DA  26070.40775463  .00000000  00000+0  00000-0 0  9992
2 55986  33.0000 147.2308 0000000   0.0000 228.9231 14.92546055    15
KUIPER2_L_00005321-01
1 55987U 22280AR  26070.40775463  .00000000  00000+0  00000-0 0  9998
2 55987  33.0000 147.6923 0000000   0.0000 230.7692 14.92546055    15
KUIPER2_L_00005322-01
1 55988U 24309UT  26070.40775463  .00000000  00000+0  00000-0 0  9993
2 55988  33.0000 148.1538 0000000   0.0000 232.6154 14.92546055    18
KUIPER2_L_00005323-01
1 55989U 25040LI  26070.40775463  .00000000  00000+0  00000-0 0  9997
2 55989  33.0000 148.6154 0000000   0.0000 234.4615 14.92546055    10
KUIPER2_L_00005324-01
1 55990U 24262VW  26070.40775463  .00000000  00000+0  00000-0 0  9994
2 55990  33.0000 149.0769 0000000   0.0000 236.3077 14.92546055    12
KUIPER2_L_00005325-01
1 55991U 24415AS  26070.40775463  .00000000  00000+0  00000-0 0  9995
2 55991  33.0000 149.5385 0000000   0.0000 238.1538 14.92546055    14
KUIPER2_L_00005326-01
1 55992U 26208NA  26070.40775463  .00000000  00000+0  00000-0 0  9998
2 55992  33.0000 150.0000 0000000   0.0000 240.0000 14.92546055    12
KUIPER2_L_00005327-01
1 55993U 24167GK  26070.40775463  .00000000  00000+0  00000-0 0  9991
2 55993  33.0000 150.4615 0000000   0.0000 241.8462 14.92546055    10
KUIPER2_L_00005328-01
1 55994U 22082FH  26070.40775463  .00000000  00000+0  00000-0 0  9996
2 55994  33.0000 150.9231 0000000   0.0000 243.6923 14.92546055    12
KUIPER2_L_00005329-01
1 55995U 25060AH  26070.40775463  .00000000  00000+0  00000-0 0  9996
2 55995  33.0000 151.3846 0000000   0.0000 245.5385 14.92546055    13
KUIPER2_L_00005330-01
1 55996U 23800QN  26070.40775463  .00000000  00000+0  00000-0 0  9997
2 55996  33.0000 151.8462 0000000   0.0000 247.3846 14.92546055    15
KUIPER2_L_00005331-01
1 55997U 25490NS  26070.40775463  .00000000  00000+0  00000-0 0  9995
2 55997  33.0000 152.3077 0000000   0.0000 249.2308 14.92546055    18
KUIPER2_L_00005332-01
1 55998U 23169CX  26070.40775463  .00000000  00000+0  00000-0 0  9997
2 55998  33.0000 152.7692 0000000   0.0000 251.0769 14.92546055    18
KUIPER2_L_00005333-01
1 55999U 25986IP  26070.40775463  .00000000  00000+0  00000-0 0  9997
2 55999  33.0000 153.2308 0000000   0.0000 252.9231 14.92546055    13
KUIPER2_L_00005334-01
1 56000U 23146UH  26070.40775463  .00000000  00000+0  00000-0 0  9997
2 56000  33.0000 153.6923 0000000   0.0000 254.7692 14.92546055    15
KUIPER2_L_00005335-01
1 56001U 26292FI  26070.40775463  .00000000  00000+0  00000-0 0  9993
2 56001  33.0000 154.1538 0000000   0.0000 256.6154 14.92546055    18
KUIPER2_L_00005336-01
1 56002U 23457WW  26070.40775463  .00000000  00000+0  00000-0 0  9994
2 56002  33.0000 154.6154 0000000   0.0000 258.4615 14.92546055    10
KUIPER2_L_00005337-01
1 56003U 22706PC  26070.40775463  .00000000  00000+0  00000-0 0  9991
2 56003  33.0000 155.0769 0000000   0.0000 260.3077 14.92546055    12
KUIPER2_L_00005338-01
1 56004U 24251KD  26070.40775463  .00000000  00000+0  00000-0 0  9999
2 56004  33.0000 155.5385 0000000   0.0000 262.1538 14.92546055    14
KUIPER2_L_00005339-01
1 56005U 24235YQ  26070.40775463  .00000000  00000+0  00000-0 0  9992
2 56005  33.0000 156.0000 0000000   0.0000 264.0000 14.92546055    10
KUIPER2_L_00005340-01
1 56006U 26976RE  26070.40775463  .00000000  00000+0  00000-0 0  9997
2 56006  33.0000 156.4615 0000000   0.0000 265.8462 14.92546055    18
KUIPER2_L_00005341-01
1 56007U 25908BD  26070.40775463  .00000000  00000+0  00000-0 0  9992
2 56007  33.0000 156.9231 0000000   0.0000 267.6923 14.92546055    10
KUIPER2_L_00005342-01
1 56008U 26307UV  26070.40775463  .00000000  00000+0  00000-0 0  9997
2 56008  33.0000 157.3846 0000000   0.0000 269.5385 14.92546055    11
KUIPER2_L_00005343-01
1 56009U 26601TC  26070.40775463  .00000000  00000+0  00000-0 0  9995
2 56009  33.0000 157.8462 0000000   0.0000 271.3846 14.92546055    14
KUIPER2_L_00005344-01
1 56010U 22186XO  26070.40775463  .00000000  00000+0  00000-0 0  9991
2 56010  33.0000 158.3077 0000000   0.0000 273.2308 14.92546055    18
KUIPER2_L_00005345-01
1 56011U 25529FL  26070.40775463  .00000000  00000+0  00000-0 0  9996
2 56011  33.0000 158.7692 0000000   0.0000 275.0769 14.92546055    17
KUIPER2_L_00005346-01
1 56012U 25552JK  26070.40775463  .00000000  00000+0  00000-0 0  9993
2 56012  33.0000 159.2308 0000000   0.0000 276.9231 14.92546055    12
KUIPER2_L_00005347-01
1 56013U 24236ZX  26070.40775463  .00000000  00000+0  00000-0 0  9992
2 56013  33.0000 159.6923 0000000   0.0000 278.7692 14.92546055    11
KUIPER2_L_00005348-01
1 56014U 26453HD  26070.40775463  .00000000  00000+0  00000-0 0  9996
2 56014  33.0000 160.1538 0000000   0.0000 280.6154 14.92546055    16
KUIPER2_L_00005349-01
1 56015U 25805YK  26070.40775463  .00000000  00000+0  00000-0 0  9997
2 56015  33.0000 160.6154 0000000   0.0000 282.4615 14.92546055    18
KUIPER2_L_00005350-01
1 56016U 26027EO  26070.40775463  .00000000  00000+0  00000-0 0  9995
2 56016  33.0000 161.0769 0000000   0.0000 284.3077 14.92546055    19
KUIPER2_L_00005351-01
1 56017U 26899NK  26070.40775463  .00000000  00000+0  00000-0 0  9993
2 56017  33.0000 161.5385 0000000   0.0000 286.1538 14.92546055    11
KUIPER2_L_00005352-01
1 56018U 25738X   26070.40775463  .00000000  00000+0  00000-0 0  9995
2 56018  33.0000 162.0000 0000000   0.0000 288.0000 14.92546055    17
KUIPER2_L_00005353-01
1 56019U 24114AM  26070.40775463  .00000000  00000+0  00000-0 0  9993
2 56019  33.0000 162.4615 0000000   0.0000 289.8462 14.92546055    15
KUIPER2_L_00005354-01
1 56020U 23356FA  26070.40775463  .00000000  00000+0  00000-0 0  9992
2 56020  33.0000 162.9231 0000000   0.0000 291.6923 14.92546055    19
KUIPER2_L_00005355-01
1 56021U 23409VY  26070.40775463  .00000000  00000+0  00000-0 0  9992
2 56021  33.0000 163.3846 0000000   0.0000 293.5385 14.92546055    10
KUIPER2_L_00005356-01
1 56022U 24746PF  26070.40775463  .00000000  00000+0  00000-0 0  9998
2 56022  33.0000 163.8462 0000000   0.0000 295.3846 14.92546055    12
KUIPER2_L_00005357-01
1 56023U 23506WK  26070.40775463  .00000000  00000+0  00000-0 0  9992
2 56023  33.0000 164.3077 0000000   0.0000 297.2308 14.92546055    15
KUIPER2_L_00005358-01
1 56024U 22384YP  26070.40775463  .00000000  00000+0  00000-0 0  9996
2 56024  33.0000 164.7692 0000000   0.0000 299.0769 14.92546055    14
KUIPER2_L_00005359-01
1 56025U 23619OF  26070.40775463  .00000000  00000+0  00000-0 0  9999
2 56025  33.0000 165.2308 0000000   0.0000 300.9231 14.92546055    11
KUIPER2_L_00005360-01
1 56026U 22466PZ  26070.40775463  .00000000  00000+0  00000-0 0  9999
2 56026  33.0000 165.6923 0000000   0.0000 302.7692 14.92546055    10
KUIPER2_L_00005361-01
1 56027U 26840XE  26070.40775463  .00000000  00000+0  00000-0 0  9990
2 56027  33.0000 166.1538 0000000   0.0000 304.6154 14.92546055    13
KUIPER2_L_00005362-01
1 56028U 26230QH  26070.40775463  .00000000  00000+0  00000-0 0  9994
2 56028  33.0000 166.6154 0000000   0.0000 306.4615 14.92546055    15
KUIPER2_L_00005363-01
1 56029U 25218VU  26070.40775463  .00000000  00000+0  00000-0 0  9990
2 56029  33.0000 167.0769 0000000   0.0000 308.3077 14.92546055    16
KUIPER2_L_00005364-01
1 56030U 23058UQ  26070.40775463  .00000000  00000+0  00000-0 0  9992
2 56030  33.0000 167.5385 0000000   0.0000 310.1538 14.92546055    10
KUIPER2_L_00005365-01
1 56031U 23238XP  26070.40775463  .00000000  00000+0  00000-0 0  9993
2 56031  33.0000 168.0000 0000000   0.0000 312.0000 14.92546055    16
KUIPER2_L_00005366-01
1 56032U 22676TX  26070.40775463  .00000000  00000+0  00000-0 0  9999
2 56032  33.0000 168.4615 0000000   0.0000 313.8462 14.92546055    14
